{"type": "FeatureCollection", "features": [ {"type": "Feature", "properties": {"norad_id": 41006, "name": "FENGYUN 1C DEB", "group": "fengyun-1c-debris", "lat": 60.373351960435635, "lon": 75.57663703290488, "alt_km": 1037.444009367332, "timestamp": "2025-12-24T09:46:31.294560+00:00", "meta": {"OBJECT_NAME": "FENGYUN 1C DEB", "OBJECT_ID": "1999-025EXL", "EPOCH": "2025-12-19T21:45:46.059840", "MEAN_MOTION": 13.85407302, "ECCENTRICITY": 0.0190575, "INCLINATION": 102.3676, "RA_OF_ASC_NODE": 226.9637, "ARG_OF_PERICENTER": 351.9089, "MEAN_ANOMALY": 7.8995, "EPHEMERIS_TYPE": 0, "CLASSIFICATION_TYPE": "U", "NORAD_CAT_ID": 41006, "ELEMENT_SET_NO": 999, "REV_AT_EPOCH": 57588, "BSTAR": 0.0020631, "MEAN_MOTION_DOT": 2.639e-05, "MEAN_MOTION_DDOT": 0}, "tle": {"line1": "1 41006U 99025EXL 25353.90678310  .00002639  00000+0  20631-2 0  9991", "line2": "2 41006 102.3676 226.9637 0190575 351.9089   7.8995 13.85407302575889"}}, "geometry": {"type": "Point", "coordinates": [75.57663703290488, 60.373351960435635]}}, {"type": "Feature", "properties": {"norad_id": 41007, "name": "FENGYUN 1C DEB", "group": "fengyun-1c-debris", "lat": -35.64779706238536, "lon": 33.17567449005956, "alt_km": 866.9950986383174, "timestamp": "2025-12-24T09:46:31.294571+00:00", "meta": {"OBJECT_NAME": "FENGYUN 1C DEB", "OBJECT_ID": "1999-025EXM", "EPOCH": "2025-11-29T06:55:22.773792", "MEAN_MOTION": 13.85678237, "ECCENTRICITY": 0.01723955, "INCLINATION": 99.9731, "RA_OF_ASC_NODE": 359.205, "ARG_OF_PERICENTER": 79.2855, "MEAN_ANOMALY": 282.7657, "EPHEMERIS_TYPE": 0, "CLASSIFICATION_TYPE": "U", "NORAD_CAT_ID": 41007, "ELEMENT_SET_NO": 999, "REV_AT_EPOCH": 57212, "BSTAR": 0.0017167305, "MEAN_MOTION_DOT": 2.158e-05, "MEAN_MOTION_DDOT": 0}, "tle": {"line1": "1 41007U 99025EXM 25333.28845803  .00002158  00000+0  17167-2 0  9990", "line2": "2 41007  99.9731 359.2050 0172395  79.2855 282.7657 13.85678237572123"}}, "geometry": {"type": "Point", "coordinates": [33.17567449005956, -35.64779706238536]}}, {"type": "Feature", "properties": {"norad_id": 41011, "name": "FENGYUN 1C DEB", "group": "fengyun-1c-debris", "lat": -11.389050579772215, "lon": 46.18092437788786, "alt_km": 551.8505936088304, "timestamp": "2025-12-24T09:46:31.294581+00:00", "meta": {"OBJECT_NAME": "FENGYUN 1C DEB", "OBJECT_ID": "1999-025EXR", "EPOCH": "2025-12-23T20:30:46.247616", "MEAN_MOTION": 14.42971366, "ECCENTRICITY": 0.0309356, "INCLINATION": 99.1668, "RA_OF_ASC_NODE": 43.7219, "ARG_OF_PERICENTER": 325.2752, "MEAN_ANOMALY": 32.8581, "EPHEMERIS_TYPE": 0, "CLASSIFICATION_TYPE": "U", "NORAD_CAT_ID": 41011, "ELEMENT_SET_NO": 999, "REV_AT_EPOCH": 57317, "BSTAR": 0.00060457, "MEAN_MOTION_DOT": 3.552e-05, "MEAN_MOTION_DDOT": 0}, "tle": {"line1": "1 41011U 99025EXR 25357.85470194  .00003552  00000+0  60457-3 0  9991", "line2": "2 41011  99.1668  43.7219 0309356 325.2752  32.8581 14.42971366573179"}}, "geometry": {"type": "Point", "coordinates": [46.18092437788786, -11.389050579772215]}}, {"type": "Feature", "properties": {"norad_id": 41018, "name": "FENGYUN 1C DEB", "group": "fengyun-1c-debris", "lat": 62.32314398409238, "lon": 142.3485826372233, "alt_km": 852.3278234281788, "timestamp": "2025-12-24T09:46:31.294591+00:00", "meta": {"OBJECT_NAME": "FENGYUN 1C DEB", "OBJECT_ID": "1999-025EXY", "EPOCH": "2025-12-15T01:30:35.121600", "MEAN_MOTION": 13.52371588, "ECCENTRICITY": 0.03049079, "INCLINATION": 99.9356, "RA_OF_ASC_NODE": 293.4577, "ARG_OF_PERICENTER": 112.862, "MEAN_ANOMALY": 250.5013, "EPHEMERIS_TYPE": 0, "CLASSIFICATION_TYPE": "U", "NORAD_CAT_ID": 41018, "ELEMENT_SET_NO": 999, "REV_AT_EPOCH": 88206, "BSTAR": 0.0022149287, "MEAN_MOTION_DOT": 1.917e-05, "MEAN_MOTION_DDOT": 0}, "tle": {"line1": "1 41018U 99025EXY 25349.06290650  .00001917  00000+0  22149-2 0  9997", "line2": "2 41018  99.9356 293.4577 0304907 112.8620 250.5013 13.52371588882060"}}, "geometry": {"type": "Point", "coordinates": [142.3485826372233, 62.32314398409238]}}, {"type": "Feature", "properties": {"norad_id": 41822, "name": "FENGYUN 1C DEB", "group": "fengyun-1c-debris", "lat": -45.56507851601538, "lon": 73.57120569963155, "alt_km": 839.3549036277145, "timestamp": "2025-12-24T09:46:31.294601+00:00", "meta": {"OBJECT_NAME": "FENGYUN 1C DEB", "OBJECT_ID": "1999-025EXZ", "EPOCH": "2025-12-24T03:15:10.080576", "MEAN_MOTION": 14.24875657, "ECCENTRICITY": 0.0055944, "INCLINATION": 98.7312, "RA_OF_ASC_NODE": 64.2833, "ARG_OF_PERICENTER": 188.1697, "MEAN_ANOMALY": 171.8576, "EPHEMERIS_TYPE": 0, "CLASSIFICATION_TYPE": "U", "NORAD_CAT_ID": 41822, "ELEMENT_SET_NO": 999, "REV_AT_EPOCH": 47535, "BSTAR": 0.0015809, "MEAN_MOTION_DOT": 3.709e-05, "MEAN_MOTION_DDOT": 0}, "tle": {"line1": "1 41822U 99025EXZ 25358.13553334  .00003709  00000+0  15809-2 0  9995", "line2": "2 41822  98.7312  64.2833 0055944 188.1697 171.8576 14.24875657475350"}}, "geometry": {"type": "Point", "coordinates": [73.57120569963155, -45.56507851601538]}}, {"type": "Feature", "properties": {"norad_id": 41823, "name": "FENGYUN 1C DEB", "group": "fengyun-1c-debris", "lat": -28.728755206086568, "lon": 66.4559077611846, "alt_km": 847.5993019844673, "timestamp": "2025-12-24T09:46:31.294612+00:00", "meta": {"OBJECT_NAME": "FENGYUN 1C DEB", "OBJECT_ID": "1999-025EYA", "EPOCH": "2025-12-24T03:09:56.448576", "MEAN_MOTION": 14.23589428, "ECCENTRICITY": 0.0055268, "INCLINATION": 98.7193, "RA_OF_ASC_NODE": 61.3576, "ARG_OF_PERICENTER": 195.6685, "MEAN_ANOMALY": 164.2785, "EPHEMERIS_TYPE": 0, "CLASSIFICATION_TYPE": "U", "NORAD_CAT_ID": 41823, "ELEMENT_SET_NO": 999, "REV_AT_EPOCH": 47520, "BSTAR": 0.0014635, "MEAN_MOTION_DOT": 3.344e-05, "MEAN_MOTION_DDOT": 0}, "tle": {"line1": "1 41823U 99025EYA 25358.13190334  .00003344  00000+0  14635-2 0  9994", "line2": "2 41823  98.7193  61.3576 0055268 195.6685 164.2785 14.23589428475208"}}, "geometry": {"type": "Point", "coordinates": [66.4559077611846, -28.728755206086568]}}, {"type": "Feature", "properties": {"norad_id": 41824, "name": "FENGYUN 1C DEB", "group": "fengyun-1c-debris", "lat": -42.617788393039895, "lon": -125.77072762287132, "alt_km": 781.0465408672799, "timestamp": "2025-12-24T09:46:31.294622+00:00", "meta": {"OBJECT_NAME": "FENGYUN 1C DEB", "OBJECT_ID": "1999-025EYB", "EPOCH": "2025-12-24T03:40:23.882016", "MEAN_MOTION": 14.24239544, "ECCENTRICITY": 0.0057986, "INCLINATION": 98.7305, "RA_OF_ASC_NODE": 62.105, "ARG_OF_PERICENTER": 195.0533, "MEAN_ANOMALY": 164.8922, "EPHEMERIS_TYPE": 0, "CLASSIFICATION_TYPE": "U", "NORAD_CAT_ID": 41824, "ELEMENT_SET_NO": 999, "REV_AT_EPOCH": 47522, "BSTAR": 0.0015396, "MEAN_MOTION_DOT": 3.571e-05, "MEAN_MOTION_DDOT": 0}, "tle": {"line1": "1 41824U 99025EYB 25358.15305419  .00003571  00000+0  15396-2 0  9996", "line2": "2 41824  98.7305  62.1050 0057986 195.0533 164.8922 14.24239544475228"}}, "geometry": {"type": "Point", "coordinates": [-125.77072762287132, -42.617788393039895]}}, {"type": "Feature", "properties": {"norad_id": 41825, "name": "FENGYUN 1C DEB", "group": "fengyun-1c-debris", "lat": 54.586465947929234, "lon": -100.10842369909962, "alt_km": 784.2156310432747, "timestamp": "2025-12-24T09:46:31.294632+00:00", "meta": {"OBJECT_NAME": "FENGYUN 1C DEB", "OBJECT_ID": "1999-025EYC", "EPOCH": "2025-12-21T03:40:51.708000", "MEAN_MOTION": 14.25146759, "ECCENTRICITY": 0.00562048, "INCLINATION": 98.7414, "RA_OF_ASC_NODE": 64.1533, "ARG_OF_PERICENTER": 196.8248, "MEAN_ANOMALY": 163.1069, "EPHEMERIS_TYPE": 0, "CLASSIFICATION_TYPE": "U", "NORAD_CAT_ID": 41825, "ELEMENT_SET_NO": 999, "REV_AT_EPOCH": 47468, "BSTAR": 0.0010509241, "MEAN_MOTION_DOT": 2.464e-05, "MEAN_MOTION_DDOT": 0}, "tle": {"line1": "1 41825U 99025EYC 25355.15337625  .00002464  00000+0  10509-2 0  9999", "line2": "2 41825  98.7414  64.1533 0056204 196.8248 163.1069 14.25146759474681"}}, "geometry": {"type": "Point", "coordinates": [-100.10842369909962, 54.586465947929234]}}, {"type": "Feature", "properties": {"norad_id": 41826, "name": "FENGYUN 1C DEB", "group": "fengyun-1c-debris", "lat": 39.31538861870018, "lon": 56.888335056634006, "alt_km": 844.2877120948788, "timestamp": "2025-12-24T09:46:31.294642+00:00", "meta": {"OBJECT_NAME": "FENGYUN 1C DEB", "OBJECT_ID": "1999-025EYD", "EPOCH": "2025-12-17T15:40:24.664800", "MEAN_MOTION": 14.23780201, "ECCENTRICITY": 0.00560806, "INCLINATION": 98.7338, "RA_OF_ASC_NODE": 57.4138, "ARG_OF_PERICENTER": 209.4871, "MEAN_ANOMALY": 150.3141, "EPHEMERIS_TYPE": 0, "CLASSIFICATION_TYPE": "U", "NORAD_CAT_ID": 41826, "ELEMENT_SET_NO": 999, "REV_AT_EPOCH": 47430, "BSTAR": 0.0011247822, "MEAN_MOTION_DOT": 2.57e-05, "MEAN_MOTION_DDOT": 0}, "tle": {"line1": "1 41826U 99025EYD 25351.65306325  .00002570  00000+0  11248-2 0  9993", "line2": "2 41826  98.7338  57.4138 0056080 209.4871 150.3141 14.23780201474300"}}, "geometry": {"type": "Point", "coordinates": [56.888335056634006, 39.31538861870018]}}, {"type": "Feature", "properties": {"norad_id": 41827, "name": "FENGYUN 1C DEB", "group": "fengyun-1c-debris", "lat": -0.3133061866119625, "lon": 67.62283682740282, "alt_km": 852.423258987692, "timestamp": "2025-12-24T09:46:31.294652+00:00", "meta": {"OBJECT_NAME": "FENGYUN 1C DEB", "OBJECT_ID": "1999-025EYE", "EPOCH": "2025-12-24T03:02:16.250208", "MEAN_MOTION": 14.25355826, "ECCENTRICITY": 0.0058691, "INCLINATION": 98.742, "RA_OF_ASC_NODE": 67.2949, "ARG_OF_PERICENTER": 181.6503, "MEAN_ANOMALY": 178.4491, "EPHEMERIS_TYPE": 0, "CLASSIFICATION_TYPE": "U", "NORAD_CAT_ID": 41827, "ELEMENT_SET_NO": 999, "REV_AT_EPOCH": 47493, "BSTAR": 0.001703, "MEAN_MOTION_DOT": 4.044e-05, "MEAN_MOTION_DDOT": 0}, "tle": {"line1": "1 41827U 99025EYE 25358.12657697  .00004044  00000+0  17030-2 0  9997", "line2": "2 41827  98.7420  67.2949 0058691 181.6503 178.4491 14.25355826474936"}}, "geometry": {"type": "Point", "coordinates": [67.62283682740282, -0.3133061866119625]}}]}